COMMENT,ORIGINATOR,NORAD_CAT_ID,OBJECT_NAME,OBJECT_TYPE,CLASSIFICATION_TYPE,INTLDES,EPOCH,EPOCH_MICROSECONDS,MEAN_MOTION,ECCENTRICITY,INCLINATION,RA_OF_ASC_NODE,ARG_OF_PERICENTER,MEAN_ANOMALY,EPHEMERIS_TYPE,ELEMENT_SET_NO,REV_AT_EPOCH,BSTAR,MEAN_MOTION_DOT,MEAN_MOTION_DDOT,FILE,TLE_LINE0,TLE_LINE1,TLE_LINE2,OBJECT_ID,OBJECT_NUMBER,SEMIMAJOR_AXIS,PERIOD,APOGEE,PERIGEE,DECAYED,date
GENERATED VIA SPACETRACK.ORG API,18 SPCS,48904,SPACEBEE-111,PAYLOAD,U,21059AB,2023/4/22 22:35,260992,15.30241173,0.0007957,97.591,249.7854,109.6442,250.5657,0,999,10100,0.001261,0.00036987,0,3892688,0 SPACEBEE-111,1 48904U 21059AB  23112.94113728  .00036987  00000-0  12610-2 0  9991,2 48904  97.5910 249.7854 0007957 109.6442 250.5657 15.30241173101000,2021-059AB,48904,6853.229,94.103,480.547,469.641,0,
GENERATED VIA SPACETRACK.ORG API,18 SPCS,48904,SPACEBEE-111,PAYLOAD,U,21059AB,2023/4/23 18:59,853664,15.30321514,0.0007942,97.5909,250.6539,106.5735,253.6378,0,999,10113,0.0017719,0.00052239,0,3892831,0 SPACEBEE-111,1 48904U 21059AB  23113.79120201  .00052239  00000-0  17719-2 0  9992,2 48904  97.5909 250.6539 0007942 106.5735 253.6378 15.30321514101130,2021-059AB,48904,6852.989,94.098,480.297,469.412,0,
GENERATED VIA SPACETRACK.ORG API,18 SPCS,48904,SPACEBEE-111,PAYLOAD,U,21059AB,2023/4/23 22:07,773056,15.30338012,0.0007929,97.5908,250.7875,106.1675,254.0438,0,999,10115,0.0019009,0.00056105,0,3892924,0 SPACEBEE-111,1 48904U 21059AB  23113.92197654  .00056105  00000-0  19009-2 0  9993,2 48904  97.5908 250.7875 0007929 106.1675 254.0438 15.30338012101152,2021-059AB,48904,6852.94,94.097,480.239,469.371,0,
GENERATED VIA SPACETRACK.ORG API,18 SPCS,48904,SPACEBEE-111,PAYLOAD,U,21059AB,2023/4/24 10:40,322240,15.30426906,0.0007956,97.5909,251.3219,104.1475,256.0649,0,999,10123,0.00412,0.00123112,0,3893330,0 SPACEBEE-111,1 48904U 21059AB  23114.44506160  .00123112  00000-0  41200-2 0  9998,2 48904  97.5909 251.3219 0007956 104.1475 256.0649 15.30426906101233,2021-059AB,48904,6852.675,94.091,479.992,469.088,0,
GENERATED VIA SPACETRACK.ORG API,18 SPCS,48904,SPACEBEE-111,PAYLOAD,U,21059AB,2023/4/24 23:14,482464,15.30471462,0.000793,97.5907,251.8569,102.4715,257.7413,0,999,10131,0.0015443,0.0004569,0,3893694,0 SPACEBEE-111,1 48904U 21059AB  23114.96811901  .00045690  00000-0  15443-2 0  9991,2 48904  97.5907 251.8569 0007930 102.4715 257.7413 15.30471462101317,2021-059AB,48904,6852.542,94.089,479.841,468.973,0,
GENERATED VIA SPACETRACK.ORG API,18 SPCS,48904,SPACEBEE-111,PAYLOAD,U,21059AB,2023/4/25 10:13,721184,15.30503964,0.0007903,97.5906,252.3246,101.2901,258.9228,0,999,10138,0.0012165,0.00035965,0,3894092,0 SPACEBEE-111,1 48904U 21059AB  23115.42578381  .00035965  00000-0  12165-2 0  9997,2 48904  97.5906 252.3246 0007903 101.2901 258.9228 15.30503964101385,2021-059AB,48904,6852.445,94.087,479.725,468.894,0,
GENERATED VIA SPACETRACK.ORG API,18 SPCS,48904,SPACEBEE-111,PAYLOAD,U,21059AB,2023/4/25 22:46,11712,15.30531039,0.00078,97.5905,252.8597,99.1546,261.0577,0,999,10146,0.0011104,0.00032834,0,3894204,0 SPACEBEE-111,1 48904U 21059AB  23115.94881958  .00032834  00000-0  11104-2 0  9995,2 48904  97.5905 252.8597 0007800  99.1546 261.0577 15.30531039101469,2021-059AB,48904,6852.364,94.085,479.574,468.884,0,
GENERATED VIA SPACETRACK.ORG API,18 SPCS,48904,SPACEBEE-111,PAYLOAD,U,21059AB,2023/4/26 14:27,538048,15.30571531,0.0007794,97.5905,253.528,97.4039,262.8087,0,999,10156,0.0010976,0.00032494,0,3894260,0 SPACEBEE-111,1 48904U 21059AB  23116.60259882  .00032494  00000-0  10976-2 0  9992,2 48904  97.5905 253.5280 0007794  97.4039 262.8087 15.30571531101563,2021-059AB,48904,6852.243,94.083,479.449,468.767,0,
GENERATED VIA SPACETRACK.ORG API,18 SPCS,48904,SPACEBEE-111,PAYLOAD,U,21059AB,2023/4/26 23:52,670720,15.30598859,0.000778,97.5906,253.929,95.8781,264.3346,0,999,10162,0.0011247,0.0003333,0,3894365,0 SPACEBEE-111,1 48904U 21059AB  23116.99485730  .00033330  00000-0  11247-2 0  9999,2 48904  97.5906 253.9290 0007780  95.8781 264.3346 15.30598859101624,2021-059AB,48904,6852.161,94.081,479.357,468.695,0,
GENERATED VIA SPACETRACK.ORG API,18 SPCS,48904,SPACEBEE-111,PAYLOAD,U,21059AB,2023/4/27 7:43,853888,15.30621823,0.0007734,97.591,254.2638,94.2821,265.9303,0,999,10167,0.0011676,0.00034634,0,3894751,0 SPACEBEE-111,1 48904U 21059AB  23117.32173442  .00034634  00000-0  11676-2 0  9995,2 48904  97.5910 254.2638 0007734  94.2821 265.9303 15.30621823101679,2021-059AB,48904,6852.093,94.079,479.257,468.658,0,
GENERATED VIA SPACETRACK.ORG API,18 SPCS,48904,SPACEBEE-111,PAYLOAD,U,21059AB,2023/4/28 2:32,158304,15.3068209,0.0007763,97.5909,255.0659,91.8379,268.3751,0,999,10179,0.0012833,0.00038163,0,3895204,0 SPACEBEE-111,1 48904U 21059AB  23118.10621711  .00038163  00000-0  12833-2 0  9996,2 48904  97.5909 255.0659 0007763  91.8379 268.3751 15.30682090101792,2021-059AB,48904,6851.913,94.076,479.097,468.459,0,
GENERATED VIA SPACETRACK.ORG API,18 SPCS,48904,SPACEBEE-111,PAYLOAD,U,21059AB,2023/4/28 10:23,739616,15.30706011,0.0007705,97.5909,255.4002,90.7098,269.5025,0,999,10184,0.0011883,0.00035345,0,3895770,0 SPACEBEE-111,1 48904U 21059AB  23118.43307569  .00035345  00000-0  11883-2 0  9997,2 48904  97.5909 255.4002 0007705  90.7098 269.5025 15.30706011101843,2021-059AB,48904,6851.842,94.074,478.986,468.427,0,
GENERATED VIA SPACETRACK.ORG API,18 SPCS,48904,SPACEBEE-111,PAYLOAD,U,21059AB,2023/4/29 8:21,104128,15.30771478,0.0007615,97.5907,256.3364,87.7516,272.4596,0,999,10198,0.0011584,0.00034519,0,3896430,0 SPACEBEE-111,1 48904U 21059AB  23119.34825352  .00034519  00000-0  11584-2 0  9993,2 48904  97.5907 256.3364 0007615  87.7516 272.4596 15.30771478101983,2021-059AB,48904,6851.646,94.07,478.729,468.294,0,
GENERATED VIA SPACETRACK.ORG API,18 SPCS,48904,SPACEBEE-111,PAYLOAD,U,21059AB,2023/4/29 8:21,104128,15.30771478,0.0007615,97.5907,256.3364,87.7516,272.4596,0,999,10198,0.0011584,0.00034519,0,3896517,0 SPACEBEE-111,1 48904U 21059AB  23119.34825352  .00034519  00000-0  11584-2 0  9993,2 48904  97.5907 256.3364 0007615  87.7516 272.4596 15.30771478101983,2021-059AB,48904,6851.646,94.07,478.729,468.294,0,
GENERATED VIA SPACETRACK.ORG API,18 SPCS,48904,SPACEBEE-111,PAYLOAD,U,21059AB,2023/4/30 7:53,444096,15.30846987,0.0007526,97.5908,257.3394,84.1524,276.0574,0,999,10213,0.0011824,0.00035321,0,3897442,0 SPACEBEE-111,1 48904U 21059AB  23120.32875514  .00035321  00000-0  11824-2 0  9997,2 48904  97.5908 257.3394 0007526  84.1524 276.0574 15.30846987102131,2021-059AB,48904,6851.421,94.066,478.442,468.13,0,
GENERATED VIA SPACETRACK.ORG API,18 SPCS,48904,SPACEBEE-111,PAYLOAD,U,21059AB,2023/4/30 20:26,394272,15.30881581,0.0007544,97.591,257.8743,82.4993,277.7105,0,999,10221,0.001061,0.00031705,0,3897602,0 SPACEBEE-111,1 48904U 21059AB  23120.85167123  .00031705  00000-0  10610-2 0  9999,2 48904  97.5910 257.8743 0007544  82.4993 277.7105 15.30881581102214,2021-059AB,48904,6851.318,94.063,478.351,468.014,0,
